GLOBALSTAR M023         
1 25621U 99004A   25043.33763273 -.00000054  00000+0  27940-3 0  9990
2 25621  52.0106  73.6108 0009989 210.0339 163.0474 12.62494858199968
GLOBALSTAR M040         
1 25622U 99004B   25043.34371743 -.00000010  00000+0  52642-3 0  9998
2 25622  51.9917  77.5603 0001236 123.7450 251.3180 12.62001407199498
GLOBALSTAR M036         
1 25623U 99004C   25043.62832646 -.00000097  00000+0 -20714-3 0  9995
2 25623  51.9940 208.6296 0011433 169.9393 270.0809 11.86591991164190
GLOBALSTAR M038         
1 25624U 99004D   25043.47071903 -.00000057  00000+0  31278-3 0  9992
2 25624  51.9973  70.7388 0002183 150.5569 357.6207 12.32520344186992
GLOBALSTAR M022         
1 25649U 99012A   25043.33324622 -.00000074  00000+0  15673-3 0  9992
2 25649  52.0027 270.3146 0001649 298.6145 233.6653 12.02495787161351
GLOBALSTAR M041         
1 25650U 99012B   25043.59565270 -.00000086  00000+0 -11974-4 0  9993
2 25650  52.0010 147.2521 0002509  87.8701 272.2422 11.96670969163361
GLOBALSTAR M046         
1 25651U 99012C   25043.63295657 -.00000013  00000+0  83042-3 0  9991
2 25651  52.0030 224.1773 0002493  30.4495  44.2296 12.09405732168599
GLOBALSTAR M037         
1 25652U 99012D   25043.64214355 -.00000073  00000+0  17434-3 0  9997
2 25652  51.9983 203.3477 0000920 263.1980 177.9431 12.62436353195544
